NOAA 1                  
1 04793U 70106A   26094.74647678 -.00000035  00000+0  47382-4 0  9993
2 04793 101.3457 132.6720 0032059 130.2162 342.7815 12.54049748531486
NOAA 2 (ITOS-D)         
1 06235U 72082A   26094.92035992 -.00000033  00000+0  87312-4 0  9996
2 06235 102.0139 112.6754 0003727 313.1685 109.2428 12.53212775445774
NOAA 3                  
1 06920U 73086A   26094.95144461 -.00000038  00000+0  63891-4 0  9998
2 06920 102.2889 108.1857 0006187 258.7901 104.9471 12.40392547372828
NOAA 4                  
1 07529U 74089A   26094.97236115 -.00000044  00000+0  16161-4 0  9993
2 07529 102.0059 106.9857 0008832 338.8401  48.8924 12.53202299350352
NOAA 5                  
1 09057U 76077A   26094.94395399 -.00000039  00000+0  53434-4 0  9995
2 09057 102.2992  80.5931 0010090 112.8726 303.3846 12.37829299245416
TIROS N                 
1 11060U 78096A   26094.68330038  .00000255  00000+0  14100-3 0  9990
2 11060  98.4598 119.0466 0011642  95.6464 264.6041 14.19350813668321
NOAA 6                  
1 11416U 79057A   26094.69093065  .00000476  00000+0  18102-3 0  9991
2 11416  98.5709 124.6826 0010979 113.9863 246.2473 14.35454601440413
NOAA 7                  
1 12553U 81059A   26094.91419488  .00000073  00000+0  57258-4 0  9994
2 12553  98.8009 162.7363 0012460 116.0705 244.1754 14.17779041314368
NOAA 8                  
1 13923U 83022A   26094.93721928  .00000193  00000+0  92335-4 0  9993
2 13923  98.7359 107.8210 0015850 111.5211 248.7662 14.29777740240606
NOAA 9                  
1 15427U 84123A   26094.91336911  .00000145  00000+0  95440-4 0  9996
2 15427  99.1062 119.8310 0014455 193.6027 232.9054 14.17048140133044
NOAA 10                 
1 16969U 86073A   26094.93653167  .00000182  00000+0  89160-4 0  9994
2 16969  98.7024  88.2820 0011492 205.7602 207.6636 14.29155343 58954
NOAA 11                 
1 19531U 88089A   26094.86380513  .00000091  00000+0  67853-4 0  9999
2 19531  98.6138  43.0281 0011620 143.9405 216.2555 14.15827000937104
NOAA 12                 
1 21263U 91032A   26094.91216503  .00000152  00000+0  80705-4 0  9998
2 21263  98.6180  84.5103 0012610 240.3492 119.6433 14.26726449814514
NOAA 13                 
1 22739U 93050A   26094.83792197  .00000165  00000+0  11002-3 0  9995
2 22739  98.6975  41.8618 0009223 345.8947  14.1967 14.13645527683017
NOAA 14                 
1 23455U 94089A   26094.92223852  .00000082  00000+0  64278-4 0  9993
2 23455  98.5067  67.8989 0008448 298.0317  62.0002 14.14661533612842
NOAA 15                 
1 25338U 98030A   26094.92032976  .00000219  00000+0  10712-3 0  9995
2 25338  98.5131 117.5134 0009925 195.7513 164.3361 14.27123734450847
NOAA 16                 
1 26536U 00055A   26094.92312728  .00000127  00000+0  88329-4 0  9990
2 26536  98.4679 113.0566 0011064 146.5055 213.6821 14.13905948613374
