[{"OBJECT_NAME":"NOAA 1","OBJECT_ID":"1970-106A","EPOCH":"2026-04-04T17:54:55.593792","MEAN_MOTION":12.54049748,"ECCENTRICITY":0.00320593,"INCLINATION":101.3457,"RA_OF_ASC_NODE":132.672,"ARG_OF_PERICENTER":130.2162,"MEAN_ANOMALY":342.7815,"EPHEMERIS_TYPE":0,"CLASSIFICATION_TYPE":"U","NORAD_CAT_ID":4793,"ELEMENT_SET_NO":999,"REV_AT_EPOCH":53148,"BSTAR":4.7382014e-5,"MEAN_MOTION_DOT":-3.5e-7,"MEAN_MOTION_DDOT":0},{"OBJECT_NAME":"NOAA 2 (ITOS-D)","OBJECT_ID":"1972-082A","EPOCH":"2026-04-04T22:05:19.097088","MEAN_MOTION":12.53212775,"ECCENTRICITY":0.00037277,"INCLINATION":102.0139,"RA_OF_ASC_NODE":112.6754,"ARG_OF_PERICENTER":313.1685,"MEAN_ANOMALY":109.2428,"EPHEMERIS_TYPE":0,"CLASSIFICATION_TYPE":"U","NORAD_CAT_ID":6235,"ELEMENT_SET_NO":999,"REV_AT_EPOCH":44577,"BSTAR":8.7311937e-5,"MEAN_MOTION_DOT":-3.3e-7,"MEAN_MOTION_DDOT":0},{"OBJECT_NAME":"NOAA 3","OBJECT_ID":"1973-086A","EPOCH":"2026-04-04T22:50:04.814304","MEAN_MOTION":12.40392547,"ECCENTRICITY":0.00061873,"INCLINATION":102.2889,"RA_OF_ASC_NODE":108.1857,"ARG_OF_PERICENTER":258.7901,"MEAN_ANOMALY":104.9471,"EPHEMERIS_TYPE":0,"CLASSIFICATION_TYPE":"U","NORAD_CAT_ID":6920,"ELEMENT_SET_NO":999,"REV_AT_EPOCH":37282,"BSTAR":6.3891247e-5,"MEAN_MOTION_DOT":-3.8e-7,"MEAN_MOTION_DDOT":0},{"OBJECT_NAME":"NOAA 4","OBJECT_ID":"1974-089A","EPOCH":"2026-04-04T23:20:12.003360","MEAN_MOTION":12.53202299,"ECCENTRICITY":0.0008832,"INCLINATION":102.0059,"RA_OF_ASC_NODE":106.9857,"ARG_OF_PERICENTER":338.8401,"MEAN_ANOMALY":48.8924,"EPHEMERIS_TYPE":0,"CLASSIFICATION_TYPE":"U","NORAD_CAT_ID":7529,"ELEMENT_SET_NO":999,"REV_AT_EPOCH":35035,"BSTAR":1.6161075e-5,"MEAN_MOTION_DOT":-4.4e-7,"MEAN_MOTION_DDOT":0},{"OBJECT_NAME":"NOAA 5","OBJECT_ID":"1976-077A","EPOCH":"2026-04-04T22:39:17.624736","MEAN_MOTION":12.37829299,"ECCENTRICITY":0.00100905,"INCLINATION":102.2992,"RA_OF_ASC_NODE":80.5931,"ARG_OF_PERICENTER":112.8726,"MEAN_ANOMALY":303.3846,"EPHEMERIS_TYPE":0,"CLASSIFICATION_TYPE":"U","NORAD_CAT_ID":9057,"ELEMENT_SET_NO":999,"REV_AT_EPOCH":24541,"BSTAR":5.3434099e-5,"MEAN_MOTION_DOT":-3.9e-7,"MEAN_MOTION_DDOT":0},{"OBJECT_NAME":"TIROS N","OBJECT_ID":"1978-096A","EPOCH":"2026-04-04T16:23:57.152832","MEAN_MOTION":14.19350813,"ECCENTRICITY":0.00116427,"INCLINATION":98.4598,"RA_OF_ASC_NODE":119.0466,"ARG_OF_PERICENTER":95.6464,"MEAN_ANOMALY":264.6041,"EPHEMERIS_TYPE":0,"CLASSIFICATION_TYPE":"U","NORAD_CAT_ID":11060,"ELEMENT_SET_NO":999,"REV_AT_EPOCH":66832,"BSTAR":0.00014099831,"MEAN_MOTION_DOT":2.55e-6,"MEAN_MOTION_DDOT":0},{"OBJECT_NAME":"NOAA 6","OBJECT_ID":"1979-057A","EPOCH":"2026-04-04T16:34:56.408160","MEAN_MOTION":14.35454601,"ECCENTRICITY":0.00109791,"INCLINATION":98.5709,"RA_OF_ASC_NODE":124.6826,"ARG_OF_PERICENTER":113.9863,"MEAN_ANOMALY":246.2473,"EPHEMERIS_TYPE":0,"CLASSIFICATION_TYPE":"U","NORAD_CAT_ID":11416,"ELEMENT_SET_NO":999,"REV_AT_EPOCH":44041,"BSTAR":0.0001810218,"MEAN_MOTION_DOT":4.76e-6,"MEAN_MOTION_DDOT":0},{"OBJECT_NAME":"NOAA 7","OBJECT_ID":"1981-059A","EPOCH":"2026-04-04T21:56:26.437632","MEAN_MOTION":14.17779041,"ECCENTRICITY":0.00124603,"INCLINATION":98.8009,"RA_OF_ASC_NODE":162.7363,"ARG_OF_PERICENTER":116.0705,"MEAN_ANOMALY":244.1754,"EPHEMERIS_TYPE":0,"CLASSIFICATION_TYPE":"U","NORAD_CAT_ID":12553,"ELEMENT_SET_NO":999,"REV_AT_EPOCH":31436,"BSTAR":5.7258344e-5,"MEAN_MOTION_DOT":7.3e-7,"MEAN_MOTION_DDOT":0},{"OBJECT_NAME":"NOAA 8","OBJECT_ID":"1983-022A","EPOCH":"2026-04-04T22:29:35.745792","MEAN_MOTION":14.2977774,"ECCENTRICITY":0.00158501,"INCLINATION":98.7359,"RA_OF_ASC_NODE":107.821,"ARG_OF_PERICENTER":111.5211,"MEAN_ANOMALY":248.7662,"EPHEMERIS_TYPE":0,"CLASSIFICATION_TYPE":"U","NORAD_CAT_ID":13923,"ELEMENT_SET_NO":999,"REV_AT_EPOCH":24060,"BSTAR":9.2335375e-5,"MEAN_MOTION_DOT":1.93e-6,"MEAN_MOTION_DDOT":0},{"OBJECT_NAME":"NOAA 9","OBJECT_ID":"1984-123A","EPOCH":"2026-04-04T21:55:15.091104","MEAN_MOTION":14.1704814,"ECCENTRICITY":0.00144557,"INCLINATION":99.1062,"RA_OF_ASC_NODE":119.831,"ARG_OF_PERICENTER":193.6027,"MEAN_ANOMALY":232.9054,"EPHEMERIS_TYPE":0,"CLASSIFICATION_TYPE":"U","NORAD_CAT_ID":15427,"ELEMENT_SET_NO":999,"REV_AT_EPOCH":13304,"BSTAR":9.5440028e-5,"MEAN_MOTION_DOT":1.45e-6,"MEAN_MOTION_DDOT":0},{"OBJECT_NAME":"NOAA 10","OBJECT_ID":"1986-073A","EPOCH":"2026-04-04T22:28:36.336288","MEAN_MOTION":14.29155343,"ECCENTRICITY":0.00114925,"INCLINATION":98.7024,"RA_OF_ASC_NODE":88.282,"ARG_OF_PERICENTER":205.7602,"MEAN_ANOMALY":207.6636,"EPHEMERIS_TYPE":0,"CLASSIFICATION_TYPE":"U","NORAD_CAT_ID":16969,"ELEMENT_SET_NO":999,"REV_AT_EPOCH":5895,"BSTAR":8.9160464e-5,"MEAN_MOTION_DOT":1.82e-6,"MEAN_MOTION_DDOT":0},{"OBJECT_NAME":"NOAA 11","OBJECT_ID":"1988-089A","EPOCH":"2026-04-04T20:43:52.763232","MEAN_MOTION":14.15827,"ECCENTRICITY":0.00116207,"INCLINATION":98.6138,"RA_OF_ASC_NODE":43.0281,"ARG_OF_PERICENTER":143.9405,"MEAN_ANOMALY":216.2555,"EPHEMERIS_TYPE":0,"CLASSIFICATION_TYPE":"U","NORAD_CAT_ID":19531,"ELEMENT_SET_NO":999,"REV_AT_EPOCH":93710,"BSTAR":6.7852717e-5,"MEAN_MOTION_DOT":9.1e-7,"MEAN_MOTION_DDOT":0},{"OBJECT_NAME":"NOAA 12","OBJECT_ID":"1991-032A","EPOCH":"2026-04-04T21:53:31.058592","MEAN_MOTION":14.26726449,"ECCENTRICITY":0.00126106,"INCLINATION":98.618,"RA_OF_ASC_NODE":84.5103,"ARG_OF_PERICENTER":240.3492,"MEAN_ANOMALY":119.6433,"EPHEMERIS_TYPE":0,"CLASSIFICATION_TYPE":"U","NORAD_CAT_ID":21263,"ELEMENT_SET_NO":999,"REV_AT_EPOCH":81451,"BSTAR":8.0705274e-5,"MEAN_MOTION_DOT":1.52e-6,"MEAN_MOTION_DDOT":0},{"OBJECT_NAME":"NOAA 13","OBJECT_ID":"1993-050A","EPOCH":"2026-04-04T20:06:36.458208","MEAN_MOTION":14.13645527,"ECCENTRICITY":0.00092239,"INCLINATION":98.6975,"RA_OF_ASC_NODE":41.8618,"ARG_OF_PERICENTER":345.8947,"MEAN_ANOMALY":14.1967,"EPHEMERIS_TYPE":0,"CLASSIFICATION_TYPE":"U","NORAD_CAT_ID":22739,"ELEMENT_SET_NO":999,"REV_AT_EPOCH":68301,"BSTAR":0.00011001594,"MEAN_MOTION_DOT":1.65e-6,"MEAN_MOTION_DDOT":0},{"OBJECT_NAME":"NOAA 14","OBJECT_ID":"1994-089A","EPOCH":"2026-04-04T22:08:01.408128","MEAN_MOTION":14.14661533,"ECCENTRICITY":0.00084486,"INCLINATION":98.5067,"RA_OF_ASC_NODE":67.8989,"ARG_OF_PERICENTER":298.0317,"MEAN_ANOMALY":62.0002,"EPHEMERIS_TYPE":0,"CLASSIFICATION_TYPE":"U","NORAD_CAT_ID":23455,"ELEMENT_SET_NO":999,"REV_AT_EPOCH":61284,"BSTAR":6.4278059e-5,"MEAN_MOTION_DOT":8.2e-7,"MEAN_MOTION_DDOT":0},{"OBJECT_NAME":"NOAA 15","OBJECT_ID":"1998-030A","EPOCH":"2026-04-04T22:05:16.491264","MEAN_MOTION":14.27123734,"ECCENTRICITY":0.00099256,"INCLINATION":98.5131,"RA_OF_ASC_NODE":117.5134,"ARG_OF_PERICENTER":195.7513,"MEAN_ANOMALY":164.3361,"EPHEMERIS_TYPE":0,"CLASSIFICATION_TYPE":"U","NORAD_CAT_ID":25338,"ELEMENT_SET_NO":999,"REV_AT_EPOCH":45084,"BSTAR":0.00010711557,"MEAN_MOTION_DOT":2.19e-6,"MEAN_MOTION_DDOT":0},{"OBJECT_NAME":"NOAA 16","OBJECT_ID":"2000-055A","EPOCH":"2026-04-04T22:09:18.196992","MEAN_MOTION":14.13905948,"ECCENTRICITY":0.00110648,"INCLINATION":98.4679,"RA_OF_ASC_NODE":113.0566,"ARG_OF_PERICENTER":146.5055,"MEAN_ANOMALY":213.6821,"EPHEMERIS_TYPE":0,"CLASSIFICATION_TYPE":"U","NORAD_CAT_ID":26536,"ELEMENT_SET_NO":999,"REV_AT_EPOCH":61337,"BSTAR":8.8329251e-5,"MEAN_MOTION_DOT":1.27e-6,"MEAN_MOTION_DDOT":0}]
